[{"OBJECT_NAME":"ONEWEB-0262","OBJECT_ID":"2021-060P","EPOCH":"2025-08-28T21:46:15.895488","MEAN_MOTION":13.16595849,"ECCENTRICITY":0.00015871,"INCLINATION":87.9004,"RA_OF_ASC_NODE":287.0275,"ARG_OF_PERICENTER":96.8285,"MEAN_ANOMALY":263.3027,"EPHEMERIS_TYPE":0,"CLASSIFICATION_TYPE":"U","NORAD_CAT_ID":48980,"ELEMENT_SET_NO":999,"REV_AT_EPOCH":20116,"BSTAR":0.00013984611,"MEAN_MOTION_DOT":6.6e-7,"MEAN_MOTION_DDOT":0},{"OBJECT_NAME":"ONEWEB-0263","OBJECT_ID":"2021-060Q","EPOCH":"2025-08-28T20:42:25.289280","MEAN_MOTION":13.16593455,"ECCENTRICITY":0.00016012,"INCLINATION":87.9001,"RA_OF_ASC_NODE":287.0595,"ARG_OF_PERICENTER":84.3265,"MEAN_ANOMALY":275.8048,"EPHEMERIS_TYPE":0,"CLASSIFICATION_TYPE":"U","NORAD_CAT_ID":48981,"ELEMENT_SET_NO":999,"REV_AT_EPOCH":20112,"BSTAR":-2.1037086e-5,"MEAN_MOTION_DOT":5.0e-8,"MEAN_MOTION_DDOT":0},{"OBJECT_NAME":"ONEWEB-0264","OBJECT_ID":"2021-060R","EPOCH":"2025-08-28T14:18:14.780160","MEAN_MOTION":13.16596775,"ECCENTRICITY":0.00019955,"INCLINATION":87.8999,"RA_OF_ASC_NODE":287.1176,"ARG_OF_PERICENTER":86.744,"MEAN_ANOMALY":273.3919,"EPHEMERIS_TYPE":0,"CLASSIFICATION_TYPE":"U","NORAD_CAT_ID":48982,"ELEMENT_SET_NO":999,"REV_AT_EPOCH":20109,"BSTAR":0.00012793948,"MEAN_MOTION_DOT":6.2e-7,"MEAN_MOTION_DDOT":0},{"OBJECT_NAME":"ONEWEB-0266","OBJECT_ID":"2021-060T","EPOCH":"2025-08-28T14:49:02.356896","MEAN_MOTION":13.16593665,"ECCENTRICITY":0.00019067,"INCLINATION":87.9007,"RA_OF_ASC_NODE":287.0892,"ARG_OF_PERICENTER":99.609,"MEAN_ANOMALY":260.5257,"EPHEMERIS_TYPE":0,"CLASSIFICATION_TYPE":"U","NORAD_CAT_ID":48984,"ELEMENT_SET_NO":999,"REV_AT_EPOCH":20108,"BSTAR":-0.00014356735,"MEAN_MOTION_DOT":-4.2e-7,"MEAN_MOTION_DDOT":0},{"OBJECT_NAME":"ONEWEB-0267","OBJECT_ID":"2021-060U","EPOCH":"2025-08-28T15:04:59.602368","MEAN_MOTION":13.16593082,"ECCENTRICITY":0.00018324,"INCLINATION":87.9005,"RA_OF_ASC_NODE":287.09,"ARG_OF_PERICENTER":87.1567,"MEAN_ANOMALY":272.9774,"EPHEMERIS_TYPE":0,"CLASSIFICATION_TYPE":"U","NORAD_CAT_ID":48985,"ELEMENT_SET_NO":999,"REV_AT_EPOCH":20109,"BSTAR":-0.00019366798,"MEAN_MOTION_DOT":-6.1e-7,"MEAN_MOTION_DDOT":0},{"OBJECT_NAME":"ONEWEB-0268","OBJECT_ID":"2021-060V","EPOCH":"2025-08-28T14:19:23.500992","MEAN_MOTION":13.16594279,"ECCENTRICITY":0.00019945,"INCLINATION":87.9002,"RA_OF_ASC_NODE":287.1021,"ARG_OF_PERICENTER":91.9659,"MEAN_ANOMALY":268.17,"EPHEMERIS_TYPE":0,"CLASSIFICATION_TYPE":"U","NORAD_CAT_ID":48986,"ELEMENT_SET_NO":999,"REV_AT_EPOCH":20135,"BSTAR":-9.0851185e-5,"MEAN_MOTION_DOT":-2.2e-7,"MEAN_MOTION_DDOT":0},{"OBJECT_NAME":"ONEWEB-0269","OBJECT_ID":"2021-060W","EPOCH":"2025-08-28T13:52:01.830144","MEAN_MOTION":13.16592782,"ECCENTRICITY":0.00020547,"INCLINATION":87.8999,"RA_OF_ASC_NODE":287.1372,"ARG_OF_PERICENTER":96.0743,"MEAN_ANOMALY":264.0622,"EPHEMERIS_TYPE":0,"CLASSIFICATION_TYPE":"U","NORAD_CAT_ID":48987,"ELEMENT_SET_NO":999,"REV_AT_EPOCH":20112,"BSTAR":0.00033840306,"MEAN_MOTION_DOT":1.42e-6,"MEAN_MOTION_DDOT":0},{"OBJECT_NAME":"ONEWEB-0270","OBJECT_ID":"2021-060X","EPOCH":"2025-08-28T14:17:07.106496","MEAN_MOTION":13.16593927,"ECCENTRICITY":0.00015171,"INCLINATION":87.9004,"RA_OF_ASC_NODE":287.1042,"ARG_OF_PERICENTER":85.7521,"MEAN_ANOMALY":274.3783,"EPHEMERIS_TYPE":0,"CLASSIFICATION_TYPE":"U","NORAD_CAT_ID":48988,"ELEMENT_SET_NO":999,"REV_AT_EPOCH":20116,"BSTAR":0.00016541885,"MEAN_MOTION_DOT":7.6e-7,"MEAN_MOTION_DDOT":0},{"OBJECT_NAME":"ONEWEB-0271","OBJECT_ID":"2021-060Y","EPOCH":"2025-08-28T21:16:37.240896","MEAN_MOTION":13.16593829,"ECCENTRICITY":0.00018191,"INCLINATION":87.9004,"RA_OF_ASC_NODE":287.03,"ARG_OF_PERICENTER":86.5455,"MEAN_ANOMALY":273.5884,"EPHEMERIS_TYPE":0,"CLASSIFICATION_TYPE":"U","NORAD_CAT_ID":48989,"ELEMENT_SET_NO":999,"REV_AT_EPOCH":20120,"BSTAR":0.00035448486,"MEAN_MOTION_DOT":1.48e-6,"MEAN_MOTION_DDOT":0},{"OBJECT_NAME":"ONEWEB-0272","OBJECT_ID":"2021-060Z","EPOCH":"2025-08-28T14:30:48.058560","MEAN_MOTION":13.16595447,"ECCENTRICITY":0.00019365,"INCLINATION":87.9001,"RA_OF_ASC_NODE":287.1151,"ARG_OF_PERICENTER":86.2837,"MEAN_ANOMALY":273.8515,"EPHEMERIS_TYPE":0,"CLASSIFICATION_TYPE":"U","NORAD_CAT_ID":48990,"ELEMENT_SET_NO":999,"REV_AT_EPOCH":20111,"BSTAR":-0.00018406721,"MEAN_MOTION_DOT":-5.8e-7,"MEAN_MOTION_DDOT":0},{"OBJECT_NAME":"ONEWEB-0273","OBJECT_ID":"2021-060AA","EPOCH":"2025-08-28T15:02:43.372032","MEAN_MOTION":13.1659308,"ECCENTRICITY":0.00017609,"INCLINATION":87.9006,"RA_OF_ASC_NODE":287.0978,"ARG_OF_PERICENTER":93.0034,"MEAN_ANOMALY":267.1298,"EPHEMERIS_TYPE":0,"CLASSIFICATION_TYPE":"U","NORAD_CAT_ID":48991,"ELEMENT_SET_NO":999,"REV_AT_EPOCH":20109,"BSTAR":-0.00016531902,"MEAN_MOTION_DOT":-5.0e-7,"MEAN_MOTION_DDOT":0},{"OBJECT_NAME":"ONEWEB-0274","OBJECT_ID":"2021-060AB","EPOCH":"2025-08-28T13:49:45.630912","MEAN_MOTION":13.16593362,"ECCENTRICITY":0.00022188,"INCLINATION":87.8998,"RA_OF_ASC_NODE":287.1405,"ARG_OF_PERICENTER":86.4447,"MEAN_ANOMALY":273.6938,"EPHEMERIS_TYPE":0,"CLASSIFICATION_TYPE":"U","NORAD_CAT_ID":48992,"ELEMENT_SET_NO":999,"REV_AT_EPOCH":20112,"BSTAR":0.00023410992,"MEAN_MOTION_DOT":1.02e-6,"MEAN_MOTION_DDOT":0},{"OBJECT_NAME":"ONEWEB-0275","OBJECT_ID":"2021-060AC","EPOCH":"2025-08-28T13:33:47.203488","MEAN_MOTION":13.16592959,"ECCENTRICITY":0.00019507,"INCLINATION":87.9005,"RA_OF_ASC_NODE":287.1051,"ARG_OF_PERICENTER":91.2064,"MEAN_ANOMALY":268.929,"EPHEMERIS_TYPE":0,"CLASSIFICATION_TYPE":"U","NORAD_CAT_ID":48993,"ELEMENT_SET_NO":999,"REV_AT_EPOCH":20105,"BSTAR":1.4831273e-5,"MEAN_MOTION_DOT":1.9e-7,"MEAN_MOTION_DDOT":0},{"OBJECT_NAME":"ONEWEB-0276","OBJECT_ID":"2021-060AD","EPOCH":"2025-08-28T14:21:40.897728","MEAN_MOTION":13.16594019,"ECCENTRICITY":0.00017493,"INCLINATION":87.9004,"RA_OF_ASC_NODE":287.0954,"ARG_OF_PERICENTER":95.757,"MEAN_ANOMALY":264.3761,"EPHEMERIS_TYPE":0,"CLASSIFICATION_TYPE":"U","NORAD_CAT_ID":48994,"ELEMENT_SET_NO":999,"REV_AT_EPOCH":20107,"BSTAR":2.9560733e-5,"MEAN_MOTION_DOT":2.4e-7,"MEAN_MOTION_DDOT":0},{"OBJECT_NAME":"ONEWEB-0277","OBJECT_ID":"2021-060AE","EPOCH":"2025-08-28T14:39:54.345888","MEAN_MOTION":13.1659415,"ECCENTRICITY":0.00017614,"INCLINATION":87.9002,"RA_OF_ASC_NODE":287.1265,"ARG_OF_PERICENTER":83.1932,"MEAN_ANOMALY":276.94,"EPHEMERIS_TYPE":0,"CLASSIFICATION_TYPE":"U","NORAD_CAT_ID":48995,"ELEMENT_SET_NO":999,"REV_AT_EPOCH":20106,"BSTAR":-0.0001502524,"MEAN_MOTION_DOT":-4.5e-7,"MEAN_MOTION_DDOT":0},{"OBJECT_NAME":"ONEWEB-0278","OBJECT_ID":"2021-060AF","EPOCH":"2025-08-28T14:26:14.193888","MEAN_MOTION":13.16594822,"ECCENTRICITY":0.0001851,"INCLINATION":87.9004,"RA_OF_ASC_NODE":287.0915,"ARG_OF_PERICENTER":100.9716,"MEAN_ANOMALY":259.1623,"EPHEMERIS_TYPE":0,"CLASSIFICATION_TYPE":"U","NORAD_CAT_ID":48996,"ELEMENT_SET_NO":999,"REV_AT_EPOCH":20119,"BSTAR":-4.8216726e-5,"MEAN_MOTION_DOT":-6.0e-8,"MEAN_MOTION_DDOT":0}]
