ONEWEB-0262             
1 48980U 21060P   25240.90712842  .00000066  00000+0  13985-3 0  9994
2 48980  87.9004 287.0275 0001587  96.8285 263.3027 13.16595849201163
ONEWEB-0263             
1 48981U 21060Q   25240.86279270  .00000005  00000+0 -21037-4 0  9995
2 48981  87.9001 287.0595 0001601  84.3265 275.8048 13.16593455201121
ONEWEB-0264             
1 48982U 21060R   25240.59600440  .00000062  00000+0  12794-3 0  9994
2 48982  87.8999 287.1176 0001995  86.7440 273.3919 13.16596775201094
ONEWEB-0266             
1 48984U 21060T   25240.61738839 -.00000042  00000+0 -14357-3 0  9990
2 48984  87.9007 287.0892 0001906  99.6090 260.5257 13.16593665201084
ONEWEB-0267             
1 48985U 21060U   25240.62846762 -.00000061  00000+0 -19367-3 0  9994
2 48985  87.9005 287.0900 0001832  87.1567 272.9774 13.16593082201097
ONEWEB-0268             
1 48986U 21060V   25240.59679978 -.00000022  00000+0 -90851-4 0  9999
2 48986  87.9002 287.1021 0001994  91.9659 268.1700 13.16594279201358
ONEWEB-0269             
1 48987U 21060W   25240.57779896  .00000142  00000+0  33840-3 0  9993
2 48987  87.8999 287.1372 0002054  96.0743 264.0622 13.16592782201120
ONEWEB-0270             
1 48988U 21060X   25240.59522114  .00000076  00000+0  16542-3 0  9991
2 48988  87.9004 287.1042 0001517  85.7521 274.3783 13.16593927201163
ONEWEB-0271             
1 48989U 21060Y   25240.88654214  .00000148  00000+0  35448-3 0  9997
2 48989  87.9004 287.0300 0001819  86.5455 273.5884 13.16593829201209
ONEWEB-0272             
1 48990U 21060Z   25240.60472290 -.00000058  00000+0 -18407-3 0  9999
2 48990  87.9001 287.1151 0001936  86.2837 273.8515 13.16595447201116
ONEWEB-0273             
1 48991U 21060AA  25240.62689088 -.00000050  00000+0 -16532-3 0  9996
2 48991  87.9006 287.0978 0001760  93.0034 267.1298 13.16593080201090
ONEWEB-0274             
1 48992U 21060AB  25240.57622258  .00000102  00000+0  23411-3 0  9997
2 48992  87.8998 287.1405 0002218  86.4447 273.6938 13.16593362201129
ONEWEB-0275             
1 48993U 21060AC  25240.56512967  .00000019  00000+0  14831-4 0  9996
2 48993  87.9005 287.1051 0001950  91.2064 268.9290 13.16592959201059
ONEWEB-0276             
1 48994U 21060AD  25240.59839002  .00000024  00000+0  29561-4 0  9994
2 48994  87.9004 287.0954 0001749  95.7570 264.3761 13.16594019201071
ONEWEB-0277             
1 48995U 21060AE  25240.61104567 -.00000045  00000+0 -15025-3 0  9993
2 48995  87.9002 287.1265 0001761  83.1932 276.9400 13.16594150201067
ONEWEB-0278             
1 48996U 21060AF  25240.60155317 -.00000006  00000+0 -48217-4 0  9999
2 48996  87.9004 287.0915 0001851 100.9716 259.1623 13.16594822201199
